ATS 1                   
1 02608U 66110A   13024.20894032  .00000000  00000-0  10000-3 0  3974
2 02608   5.6985 305.1185 0005882 188.7756 171.4251  1.00377681 85725
ATS 3                   
1 03029U 67111A   13021.81884714 -.00000086  00000-0  10000-3 0   381
2 03029   7.4851 310.5002 0017552  87.0699 273.2657  1.00271920165568
ORIZURU (DEBUT)         
1 20479U 90013B   13023.77101981  .00000006  00000-0  79075-4 0  4575
2 20479  99.0470  80.7141 0539952  61.6800  69.0778 12.83740150 75963
SURFSAT                 
1 23711U 95059B   13024.54262693  .00000015  00000-0  11781-3 0  2843
2 23711 100.3948  14.1167 0368248 356.8959   2.9911 13.12617338825267
MAQSAT H                
1 25023U 97066A   13024.39496390  .00000041  00000-0  91151-3 0  1901
2 25023   7.6047 196.3894 6499333 165.7110 261.8662  3.09655773172158
MAQSAT B                
1 25024U 97066B   13024.73369814  .00000044  00000-0  31606-3 0  2284
2 25024   7.6272 193.4775 6508540 170.8347 212.4216  3.08787106171954
TEAMSAT                 
1 25025U 97066C   13024.68454125  .00000006  00000-0  42163-4 0  1939
2 25025   7.6672 212.3213 6514779 133.8274 303.0291  3.07927730171213
OPAL (OO-38)            
1 26063U 00004C   13023.66289562  .00000039  00000-0  33223-4 0  5988
2 26063 100.2111  72.1978 0037232 153.6317 352.3179 14.36151955680882
FALCONSAT               
1 26064U 00004D   13023.70551618  .00000033  00000-0  31642-4 0  5604
2 26064 100.2146  69.3673 0038412 163.1592 344.5151 14.35673437680698
PICOSAT 1 & 2 [TETHERED]
1 26080U 00004H   13023.20405105  .00000363  00000-0  13010-3 0   403
2 26080 100.1930 106.7911 0032430  76.9963 283.4832 14.41214390680978
PICOSAT 3               
1 26091U 00004J   13024.80829663  .00000765  00000-0  23476-3 0  7007
2 26091 100.1877 127.5048 0030758  14.0911 346.1115 14.45112196681583
PICOSAT 4               
1 26092U 00004K   13023.22561879  .00000482  00000-0  16611-3 0  5125
2 26092 100.1891  99.3644 0035092  71.0326 289.4654 14.41313168680198
PICOSAT 5               
1 26093U 00004L   13024.84336721  .00000633  00000-0  19027-3 0  4346
2 26093 100.1838 137.9149 0031622 345.5774  14.4478 14.46927472682433
PICOSAT 6               
1 26094U 00004M   13024.66897442  .00000366  00000-0  13247-3 0  4845
2 26094 100.1946  98.3447 0035089  82.6277 277.8844 14.40544981679817
SNAP 1                  
1 26386U 00033C   13024.72488819  .00000234  00000-0  51486-4 0  8231
2 26386  98.2101  90.6371 0012051  23.9451 336.2303 14.66185403672134
PICOSAT 9               
1 26930U 01043B   13024.70657579  .00000018  00000-0  38835-4 0  2289
2 26930  67.0002 238.1065 0005485 216.1857 143.8861 14.30255213591130
PROBA-1                 
1 26958U 01049B   13024.79428902  .00000395  00000-0  43046-4 0  7104
2 26958  97.4577  47.5741 0078017 303.5583  55.8193 14.91277248612059
BIRD 2                  
1 26959U 01049C   13024.76604346  .00002141  00000-0  10650-3 0  5013
2 26959  97.8809 239.1452 0012794 234.6843 191.8315 15.18750674621475
CUTE-1 (CO-55)          
1 27844U 03031E   13023.61051991  .00000140  00000-0  84527-4 0  5624
2 27844  98.7031  34.7833 0008747 309.5089 198.4563 14.21150687496193
CANX-1                  
1 27847U 03031H   13024.50411874  .00000155  00000-0  91212-4 0  4732
2 27847  98.6921  35.8811 0008502 283.9719  76.0499 14.21358564496390
CUBESAT XI-IV (CO-57)   
1 27848U 03031J   13024.56901672  .00000107  00000-0  69646-4 0  5115
2 27848  98.7117  35.1658 0008679 312.7322 193.5208 14.20885789496269
NAXING 1                
1 28221U 04012B   13023.89483544  .00000465  00000-0  53973-4 0  4199
2 28221  97.4987   4.3413 0012763 137.9798 308.3492 14.89628971476178
ST5-A                   
1 28980U 06008A   13023.86328566  .00009519  00000-0  52047-3 0  1722
2 28980 105.6253  64.2596 2248458  84.2068  16.4973 10.83952507265838
ST5-B                   
1 28981U 06008B   13023.31278222  .00019735  23044-5  57334-3 0  1808
2 28981 105.4837 131.8142 2102214 343.3257  34.0313 11.23684649269619
ST5-C                   
1 28982U 06008C   13023.22266700  .00019412  19564-5  66368-3 0  2449
2 28982 105.5168 110.9272 2154667  17.8604  10.8168 11.10484235268331
GENESIS 1               
1 29252U 06029A   13024.64850199  .00001554  00000-0  11428-3 0  8093
2 29252  64.5098  93.3357 0027430 212.2996 147.6425 15.07180826359128
FALCONSAT-3             
1 30776U 07006E   13024.41302957  .00002858  00000-0  17755-3 0  5354
2 30776  35.4325   3.7459 0002003 185.9341 309.9610 15.09436693323676
GENESIS 2               
1 31789U 07028A   13024.53897440  .00001761  00000-0  12639-3 0  5530
2 31789  64.5100 127.0270 0055669 261.1473 180.8635 15.06761652306278
APRIZESAT 4             
1 35684U 09041D   13024.77348221  .00000022  00000-0  10791-4 0   980
2 35684  98.0588 301.4104 0048503 223.7436 135.9913 14.76962186188127
APRIZESAT 3             
1 35686U 09041F   13024.22301844  .00000405  00000-0  53308-4 0  1147
2 35686  98.1009 316.2565 0077561 189.0985 170.8830 14.83885733188881
PROBA-2                 
1 36037U 09059B   13024.61462079  .00000062  00000-0  26172-4 0   336
2 36037  98.2969 218.4180 0012685 227.8879 172.3124 14.52327491171178
PRISMA (MANGO)          
1 36599U 10028B   13024.12654270  .00000267  00000-0  94662-4 0  4564
2 36599  98.3134 199.0180 0042484 195.5830 164.4027 14.41333595137332
PRISMA (TANGO)          
1 36827U 10028F   13022.94639163  .00000277  00000-0  97769-4 0   412
2 36827  98.3124 197.8688 0042612 198.9794 160.9791 14.41333063128916
APRIZESAT 5             
1 37792U 11044E   13024.73246040  .00000484  00000-0  81553-4 0  5699
2 37792  98.2265 116.9552 0061756 120.5648 240.1655 14.72924468 77477
APRIZESAT 6             
1 37793U 11044F   13024.75062004  .00000472  00000-0  85490-4 0  5903
2 37793  98.2222 114.4926 0049603 124.3895 236.2007 14.70210822 77334
ALMASAT-1               
1 38078U 12006B   13024.82722295  .00011205  00000-0  29015-3 0  9441
2 38078  69.4806 171.9046 0723497 329.3412  26.7163 14.18357343 48876
